{
  "type": "FeatureCollection",
  "features": [
    {
      "type": "Feature",
      "properties": {
        "norad_id": 34350,
        "name": "IRIDIUM 33 DEB",
        "group": "iridium-33-debris",
        "lat": 54.68589019704084,
        "lon": 178.92248231710514,
        "alt_km": 720.6058740398721,
        "timestamp": "2025-12-09T16:56:36.959211+00:00",
        "meta_object_name": "IRIDIUM 33 DEB",
        "meta_object_id": "1997-051ES",
        "meta_epoch": "2025-12-09T01:39:34.597152",
        "meta_mean_motion": 14.45373278,
        "meta_eccentricity": 0.00224735,
        "meta_inclination": 86.3277,
        "meta_ra_of_asc_node": 4.4002,
        "meta_arg_of_pericenter": 146.6467,
        "meta_mean_anomaly": 266.9742,
        "meta_ephemeris_type": 0,
        "meta_classification_type": "U",
        "meta_norad_cat_id": 34350,
        "meta_element_set_no": 999,
        "meta_rev_at_epoch": 88240,
        "meta_bstar": 0.00045977346,
        "meta_mean_motion_dot": 1.641e-05,
        "meta_mean_motion_ddot": 0,
        "tle_line1": "1 34350U 97051ES  25343.06915043  .00001641  00000+0  45977-3 0  9998",
        "tle_line2": "2 34350  86.3277   4.4002 0022473 146.6467 266.9742 14.45373278882404"
      },
      "geometry": {
        "type": "Point",
        "coordinates": [
          178.92248231710514,
          54.68589019704084
        ]
      }
    },
    {
      "type": "Feature",
      "properties": {
        "norad_id": 34366,
        "name": "IRIDIUM 33 DEB",
        "group": "iridium-33-debris",
        "lat": -1.500815359897428,
        "lon": 50.53732080088104,
        "alt_km": 729.5418332814097,
        "timestamp": "2025-12-09T16:56:36.959221+00:00",
        "meta_object_name": "IRIDIUM 33 DEB",
        "meta_object_id": "1997-051FJ",
        "meta_epoch": "2025-12-09T05:39:10.972224",
        "meta_mean_motion": 14.54009131,
        "meta_eccentricity": 0.0022205,
        "meta_inclination": 86.3692,
        "meta_ra_of_asc_node": 50.8372,
        "meta_arg_of_pericenter": 150.759,
        "meta_mean_anomaly": 267.0776,
        "meta_ephemeris_type": 0,
        "meta_classification_type": "U",
        "meta_norad_cat_id": 34366,
        "meta_element_set_no": 999,
        "meta_rev_at_epoch": 88131,
        "meta_bstar": 0.0015877,
        "meta_mean_motion_dot": 6.735e-05,
        "meta_mean_motion_ddot": 0,
        "tle_line1": "1 34366U 97051FJ  25343.23554366  .00006735  00000+0  15877-2 0  9995",
        "tle_line2": "2 34366  86.3692  50.8372 0022205 150.7590 267.0776 14.54009131881315"
      },
      "geometry": {
        "type": "Point",
        "coordinates": [
          50.53732080088104,
          -1.500815359897428
        ]
      }
    },
    {
      "type": "Feature",
      "properties": {
        "norad_id": 34375,
        "name": "IRIDIUM 33 DEB",
        "group": "iridium-33-debris",
        "lat": -52.71305237335406,
        "lon": 179.2208404902495,
        "alt_km": 912.6187954412535,
        "timestamp": "2025-12-09T16:56:36.959231+00:00",
        "meta_object_name": "IRIDIUM 33 DEB",
        "meta_object_id": "1997-051FT",
        "meta_epoch": "2025-12-09T12:12:31.902048",
        "meta_mean_motion": 14.17984003,
        "meta_eccentricity": 0.0103069,
        "meta_inclination": 86.4325,
        "meta_ra_of_asc_node": 183.9999,
        "meta_arg_of_pericenter": 136.8871,
        "meta_mean_anomaly": 243.7031,
        "meta_ephemeris_type": 0,
        "meta_classification_type": "U",
        "meta_norad_cat_id": 34375,
        "meta_element_set_no": 999,
        "meta_rev_at_epoch": 86666,
        "meta_bstar": 0.00067003,
        "meta_mean_motion_dot": 1.464e-05,
        "meta_mean_motion_ddot": 0,
        "tle_line1": "1 34375U 97051FT  25343.50870257  .00001464  00000+0  67003-3 0  9998",
        "tle_line2": "2 34375  86.4325 183.9999 0103069 136.8871 243.7031 14.17984003866662"
      },
      "geometry": {
        "type": "Point",
        "coordinates": [
          179.2208404902495,
          -52.71305237335406
        ]
      }
    },
    {
      "type": "Feature",
      "properties": {
        "norad_id": 34376,
        "name": "IRIDIUM 33 DEB",
        "group": "iridium-33-debris",
        "lat": -13.759598932178191,
        "lon": -171.18828914858972,
        "alt_km": 671.735869558067,
        "timestamp": "2025-12-09T16:56:36.959242+00:00",
        "meta_object_name": "IRIDIUM 33 DEB",
        "meta_object_id": "1997-051FU",
        "meta_epoch": "2025-12-09T01:16:56.150688",
        "meta_mean_motion": 14.62483707,
        "meta_eccentricity": 0.00267298,
        "meta_inclination": 86.2984,
        "meta_ra_of_asc_node": 8.1966,
        "meta_arg_of_pericenter": 179.1594,
        "meta_mean_anomaly": 180.9667,
        "meta_ephemeris_type": 0,
        "meta_classification_type": "U",
        "meta_norad_cat_id": 34376,
        "meta_element_set_no": 999,
        "meta_rev_at_epoch": 87953,
        "meta_bstar": 0.0016761111,
        "meta_mean_motion_dot": 8.56e-05,
        "meta_mean_motion_ddot": 0,
        "tle_line1": "1 34376U 97051FU  25343.05342767  .00008560  00000+0  16761-2 0  9997",
        "tle_line2": "2 34376  86.2984   8.1966 0026729 179.1594 180.9667 14.62483707879535"
      },
      "geometry": {
        "type": "Point",
        "coordinates": [
          -171.18828914858972,
          -13.759598932178191
        ]
      }
    },
    {
      "type": "Feature",
      "properties": {
        "norad_id": 34486,
        "name": "IRIDIUM 33 DEB",
        "group": "iridium-33-debris",
        "lat": 48.24882701546943,
        "lon": 17.476525737110627,
        "alt_km": 573.7620817671159,
        "timestamp": "2025-12-09T16:56:36.959253+00:00",
        "meta_object_name": "IRIDIUM 33 DEB",
        "meta_object_id": "1997-051GB",
        "meta_epoch": "2025-12-09T02:32:24.432576",
        "meta_mean_motion": 14.95535062,
        "meta_eccentricity": 0.00133768,
        "meta_inclination": 86.394,
        "meta_ra_of_asc_node": 13.7018,
        "meta_arg_of_pericenter": 124.1656,
        "meta_mean_anomaly": 295.4203,
        "meta_ephemeris_type": 0,
        "meta_classification_type": "U",
        "meta_norad_cat_id": 34486,
        "meta_element_set_no": 999,
        "meta_rev_at_epoch": 88932,
        "meta_bstar": 0.0024815535,
        "meta_mean_motion_dot": 0.00027645,
        "meta_mean_motion_ddot": 0,
        "tle_line1": "1 34486U 97051GB  25343.10583834  .00027645  00000+0  24816-2 0  9992",
        "tle_line2": "2 34486  86.3940  13.7018 0013376 124.1656 295.4203 14.95535062889327"
      },
      "geometry": {
        "type": "Point",
        "coordinates": [
          17.476525737110627,
          48.24882701546943
        ]
      }
    },
    {
      "type": "Feature",
      "properties": {
        "norad_id": 34487,
        "name": "IRIDIUM 33 DEB",
        "group": "iridium-33-debris",
        "lat": -82.5848006880914,
        "lon": -15.743355663227105,
        "alt_km": 772.7196329043463,
        "timestamp": "2025-12-09T16:56:36.959263+00:00",
        "meta_object_name": "IRIDIUM 33 DEB",
        "meta_object_id": "1997-051GC",
        "meta_epoch": "2025-12-09T09:17:52.053792",
        "meta_mean_motion": 14.43210329,
        "meta_eccentricity": 0.0032526,
        "meta_inclination": 86.3437,
        "meta_ra_of_asc_node": 13.8206,
        "meta_arg_of_pericenter": 138.9133,
        "meta_mean_anomaly": 283.1865,
        "meta_ephemeris_type": 0,
        "meta_classification_type": "U",
        "meta_norad_cat_id": 34487,
        "meta_element_set_no": 999,
        "meta_rev_at_epoch": 88200,
        "meta_bstar": 0.00033383,
        "meta_mean_motion_dot": 1.149e-05,
        "meta_mean_motion_ddot": 0,
        "tle_line1": "1 34487U 97051GC  25343.38740803  .00001149  00000+0  33383-3 0  9995",
        "tle_line2": "2 34487  86.3437  13.8206 0032526 138.9133 283.1865 14.43210329882005"
      },
      "geometry": {
        "type": "Point",
        "coordinates": [
          -15.743355663227105,
          -82.5848006880914
        ]
      }
    },
    {
      "type": "Feature",
      "properties": {
        "norad_id": 34488,
        "name": "IRIDIUM 33 DEB",
        "group": "iridium-33-debris",
        "lat": 30.22105739857867,
        "lon": -50.53990351604648,
        "alt_km": 470.7321108488759,
        "timestamp": "2025-12-09T16:56:36.959273+00:00",
        "meta_object_name": "IRIDIUM 33 DEB",
        "meta_object_id": "1997-051GD",
        "meta_epoch": "2025-12-08T21:57:07.266816",
        "meta_mean_motion": 15.27997887,
        "meta_eccentricity": 0.0014352,
        "meta_inclination": 86.3246,
        "meta_ra_of_asc_node": 307.7053,
        "meta_arg_of_pericenter": 57.4212,
        "meta_mean_anomaly": 302.8418,
        "meta_ephemeris_type": 0,
        "meta_classification_type": "U",
        "meta_norad_cat_id": 34488,
        "meta_element_set_no": 999,
        "meta_rev_at_epoch": 89181,
        "meta_bstar": 0.0052155,
        "meta_mean_motion_dot": 0.00145336,
        "meta_mean_motion_ddot": 0,
        "tle_line1": "1 34488U 97051GD  25342.91466744  .00145336  00000+0  52155-2 0  9997",
        "tle_line2": "2 34488  86.3246 307.7053 0014352  57.4212 302.8418 15.27997887891815"
      },
      "geometry": {
        "type": "Point",
        "coordinates": [
          -50.53990351604648,
          30.22105739857867
        ]
      }
    }
  ]
}